[{"OBJECT_NAME":"STARLINK-2483","OBJECT_ID":"2021-027BA","EPOCH":"2026-03-09T12:46:42.199968","MEAN_MOTION":15.30208756,"ECCENTRICITY":0.00012263,"INCLINATION":53.161,"RA_OF_ASC_NODE":166.3833,"ARG_OF_PERICENTER":92.9717,"MEAN_ANOMALY":267.1425,"EPHEMERIS_TYPE":0,"CLASSIFICATION_TYPE":"U","NORAD_CAT_ID":48140,"ELEMENT_SET_NO":999,"REV_AT_EPOCH":27248,"BSTAR":0.0001420962,"MEAN_MOTION_DOT":3.853e-5,"MEAN_MOTION_DDOT":0},{"OBJECT_NAME":"CZ-4 DEB","OBJECT_ID":"2003-049H","EPOCH":"2026-03-08T08:27:28.944576","MEAN_MOTION":15.27137095,"ECCENTRICITY":0.00307627,"INCLINATION":98.6284,"RA_OF_ASC_NODE":272.5918,"ARG_OF_PERICENTER":169.0311,"MEAN_ANOMALY":191.1601,"EPHEMERIS_TYPE":0,"CLASSIFICATION_TYPE":"U","NORAD_CAT_ID":35381,"ELEMENT_SET_NO":999,"REV_AT_EPOCH":18390,"BSTAR":0.0032047887,"MEAN_MOTION_DOT":0.00087287,"MEAN_MOTION_DDOT":0}]
